H1 CPF 01  gfz 2022 09 18 12  7612 terrasarx 
H2 0702601  6201 31698    2022 09 18 12 59 42 2022 09 23 00 00 42   120 1 1  0 0 0
H9
10 0 59841  76302.000000  0    4645612.578  -4694176.168  -1970692.541
10 0 59841  76422.000000  0    4654953.785  -4963126.698  -1089256.487
10 0 59841  76542.000000  0    4579079.087  -5144841.932   -188669.600
10 0 59841  76662.000000  0    4420830.795  -5234626.121    715234.711
10 0 59841  76782.000000  0    4184575.118  -5229466.860   1606547.140
10 0 59841  76902.000000  0    3876095.990  -5128116.334   2469572.250
10 0 59841  77022.000000  0    3502460.374  -4931137.223   3289112.484
10 0 59841  77142.000000  0    3071859.273  -4640912.218   4050743.031
10 0 59841  77262.000000  0    2593427.835  -4261615.796   4741070.182
10 0 59841  77382.000000  0    2077049.966  -3799150.191   5347968.587
10 0 59841  77502.000000  0    1533151.832  -3261047.736   5860793.137
10 0 59841  77622.000000  0     972488.580  -2656340.930   6270562.121
10 0 59841  77742.000000  0     405929.901  -1995405.123   6570108.213
10 0 59841  77862.000000  0    -155751.302  -1289776.702   6754196.934
10 0 59841  77982.000000  0    -702082.666   -551949.794   6819613.324
10 0 59841  78102.000000  0   -1223086.493    204846.234   6765214.618
10 0 59841  78222.000000  0   -1709461.365    966883.639   6591948.776
10 0 59841  78342.000000  0   -2152747.783   1720184.472   6302838.871
10 0 59841  78462.000000  0   -2545475.937   2450776.078   5902933.710
10 0 59841  78582.000000  0   -2881292.766   3144950.718   5399225.271
10 0 59841  78702.000000  0   -3155067.358   3789524.853   4800533.136
10 0 59841  78822.000000  0   -3362972.520   4372093.805   4117356.097
10 0 59841  78942.000000  0   -3502539.914   4881276.655   3361692.345
10 0 59841  79062.000000  0   -3572687.565   5306945.894   2546830.216
10 0 59841  79182.000000  0   -3573718.762   5640435.481   1687112.636
10 0 59841  79302.000000  0   -3507292.085   5874721.653    797680.813
10 0 59841  79422.000000  0   -3376364.230   6004574.912   -105797.828
10 0 59841  79542.000000  0   -3185105.565   6026676.960  -1007415.010
10 0 59841  79662.000000  0   -2938790.981   5939697.893  -1891312.268
10 0 59841  79782.000000  0   -2643666.731   5744331.306  -2741970.051
10 0 59841  79902.000000  0   -2306798.850   5443288.098  -3544484.306
10 0 59841  80022.000000  0   -1935909.506   5041252.347  -4284829.723
10 0 59841  80142.000000  0   -1539203.087   4544797.095  -4950102.951
10 0 59841  80262.000000  0   -1125188.252   3962266.561  -5528740.804
10 0 59841  80382.000000  0    -702498.564   3303627.383  -6010713.685
10 0 59841  80502.000000  0    -279715.126   2580290.021  -6387690.053
10 0 59841  80622.000000  0     134804.180   1804905.828  -6653168.218
10 0 59841  80742.000000  0     533085.023    991145.463  -6802577.941
10 0 59841  80862.000000  0     907685.881    153460.161  -6833351.262
10 0 59841  80982.000000  0    1251833.579   -693170.508  -6744961.567
10 0 59841  81102.000000  0    1559542.191  -1533500.597  -6538930.057
10 0 59841  81222.000000  0    1825714.663  -2352284.599  -6218802.145
10 0 59841  81342.000000  0    2046226.757  -3134547.444  -5790094.004
10 0 59841  81462.000000  0    2217991.332  -3865856.160  -5260208.858
10 0 59841  81582.000000  0    2339002.000  -4532587.807  -4638318.930
10 0 59841  81702.000000  0    2408354.625  -5122185.079  -3935216.715
10 0 59841  81822.000000  0    2426246.632  -5623398.820  -3163138.362
10 0 59841  81942.000000  0    2393953.742  -6026512.071  -2335558.185
10 0 59841  82062.000000  0    2313784.465  -6323539.562  -1466957.658
10 0 59841  82182.000000  0    2189011.763  -6508397.415   -572571.712
10 0 59841  82302.000000  0    2023785.184  -6577035.683    331884.108
10 0 59841  82422.000000  0    1823022.525  -6527530.895   1230495.893
10 0 59841  82542.000000  0    1592287.231  -6360138.680   2107440.167
10 0 59841  82662.000000  0    1337650.936  -6077299.294   2947272.971
10 0 59841  82782.000000  0    1065546.950  -5683599.555   3735208.837
10 0 59841  82902.000000  0     782618.243  -5185692.241   4457386.407
10 0 59841  83022.000000  0     495563.608  -4592175.947   5101114.676
10 0 59841  83142.000000  0     210985.105  -3913437.255   5655096.658
10 0 59841  83262.000000  0     -64757.815  -3161458.530   6109625.051
10 0 59841  83382.000000  0    -325685.390  -2349597.204   6456746.297
10 0 59841  83502.000000  0    -566323.273  -1492343.714   6690392.356
10 0 59841  83622.000000  0    -781814.170   -605060.880   6806481.540
10 0 59841  83742.000000  0    -968013.971    296292.822   6802986.519
10 0 59841  83862.000000  0   -1121570.764   1195450.582   6679967.474
10 0 59841  83982.000000  0   -1239984.709   2076130.208   6439570.827
10 0 59841  84102.000000  0   -1321648.643   2922328.388   6085994.280
10 0 59841  84222.000000  0   -1365869.212   3718612.285   5625418.001
10 0 59841  84342.000000  0   -1372867.220   4450403.532   5065902.249
10 0 59841  84462.000000  0   -1343757.758   5104250.644   4417253.102
10 0 59841  84582.000000  0   -1280510.518   5668084.371   3690854.919
10 0 59841  84702.000000  0   -1185890.398   6131448.587   2899473.652
10 0 59841  84822.000000  0   -1063382.204   6485705.264   2057033.669
10 0 59841  84942.000000  0    -917096.074   6724205.491   1178368.425
10 0 59841  85062.000000  0    -751658.593   6842420.767    278953.516
10 0 59841  85182.000000  0    -572092.395   6838033.862   -625372.919
10 0 59841  85302.000000  0    -383686.829   6710985.723  -1518699.238
10 0 59841  85422.000000  0    -191863.647   6463473.579  -2385330.494
10 0 59841  85542.000000  0      -2041.883   6099903.482  -3210069.882
10 0 59841  85662.000000  0     180495.258   5626801.537  -3978488.062
10 0 59841  85782.000000  0     350729.112   5052684.934  -4677175.816
10 0 59841  85902.000000  0     504026.348   4387896.182  -5293974.599
10 0 59841  86022.000000  0     636249.082   3644405.638  -5818181.290
10 0 59841  86142.000000  0     743851.391   2835586.665  -6240724.627
10 0 59841  86262.000000  0     823960.775   1975969.052  -6554310.800
10 0 59841  86382.000000  0     874443.629   1080976.805  -6753537.605
10 0 59842    102.000000  0     893953.061    166653.761  -6834978.353
10 0 59842    222.000000  0     881959.180   -750619.376  -6797234.499
10 0 59842    342.000000  0     838760.637  -1654412.246  -6640955.588
10 0 59842    462.000000  0     765478.148  -2528530.392  -6368828.223
10 0 59842    582.000000  0     664030.246  -3357298.441  -5985537.236
10 0 59842    702.000000  0     537089.991  -4125839.492  -5497694.114
10 0 59842    822.000000  0     388024.991  -4820341.770  -4913732.499
10 0 59842    942.000000  0     220820.951  -5428310.408  -4243774.297
10 0 59842   1062.000000  0      39989.359  -5938800.364  -3499464.907
10 0 59842   1182.000000  0    -149538.493  -6342623.842  -2693778.730
10 0 59842   1302.000000  0    -342529.138  -6632528.158  -1840798.826
10 0 59842   1422.000000  0    -533573.764  -6803339.716   -955471.752
10 0 59842   1542.000000  0    -717221.121  -6852067.678    -53342.472
10 0 59842   1662.000000  0    -888113.268  -6777964.775    849724.214
10 0 59842   1782.000000  0   -1041120.965  -6582544.247   1737830.123
10 0 59842   1902.000000  0   -1171475.061  -6269551.113   2595332.980
10 0 59842   2022.000000  0   -1274890.076  -5844887.818   3407131.077
10 0 59842   2142.000000  0   -1347676.150  -5316496.095   4158936.865
10 0 59842   2262.000000  0   -1386837.529  -4694198.622   4837531.440
10 0 59842   2382.000000  0   -1390155.368  -3989507.796   5430997.559
10 0 59842   2502.000000  0   -1356253.114  -3215403.257   5928928.681
10 0 59842   2622.000000  0   -1284642.052  -2386082.572   6322606.834
10 0 59842   2742.000000  0   -1175746.200  -1516695.065   6605147.814
10 0 59842   2862.000000  0   -1030907.883   -623062.486   6771615.997
10 0 59842   2982.000000  0    -852373.981    278610.871   6819105.402
10 0 59842   3102.000000  0    -643261.659   1172031.506   6746787.241
10 0 59842   3222.000000  0    -407503.623   2041110.767   6555923.879
10 0 59842   3342.000000  0    -149774.358   2870254.235   6249848.011
10 0 59842   3462.000000  0     124601.117   3644641.733   5833908.075
10 0 59842   3582.000000  0     409754.209   4350494.917   5315380.172
10 0 59842   3702.000000  0     699394.696   4975326.953   4703346.938
10 0 59842   3822.000000  0     986945.500   5508171.142   4008543.701
10 0 59842   3942.000000  0    1265685.158   5939780.371   3243173.923
10 0 59842   4062.000000  0    1528900.099   6262800.025   2420700.125
10 0 59842   4182.000000  0    1770039.731   6471903.733   1555601.322
10 0 59842   4302.000000  0    1982869.284   6563887.360    663113.088
10 0 59842   4422.000000  0    2161619.183   6537720.335   -241048.638
10 0 59842   4542.000000  0    2301125.179   6394553.489  -1140972.082
10 0 59842   4662.000000  0    2396956.797   6137683.791  -2020837.527
10 0 59842   4782.000000  0    2445531.032   5772476.726  -2865202.524
10 0 59842   4902.000000  0    2444208.110   5306247.991  -3659278.744
10 0 59842   5022.000000  0    2391366.843   4748106.804  -4389193.755
10 0 59842   5142.000000  0    2286457.490   4108766.798  -5042231.281
10 0 59842   5262.000000  0    2130032.119   3400330.475  -5607046.536
10 0 59842   5382.000000  0    1923752.479   2636052.752  -6073854.735
10 0 59842   5502.000000  0    1670374.835   1830087.590  -6434590.036
10 0 59842   5622.000000  0    1373713.417    997224.655  -6683032.699
10 0 59842   5742.000000  0    1038583.369    152620.299  -6814906.520
10 0 59842   5862.000000  0     670722.318   -688473.991  -6827944.817
10 0 59842   5982.000000  0     276693.159  -1510981.238  -6721923.705
10 0 59842   6102.000000  0    -136229.769  -2300261.222  -6498664.527
10 0 59842   6222.000000  0    -560190.980  -3042364.695  -6162007.911
10 0 59842   6342.000000  0    -986899.380  -3724277.470  -5717754.705
99
